{
    "CCSDS_OMM_VERS": "3.0",
    "COMMENT": "GENERATED VIA SPACE-TRACK.ORG API",
    "CREATION_DATE": "2025-05-23T14:56:28",
    "ORIGINATOR": "18 SPCS",
    "OBJECT_NAME": "BEIDOU 16",
    "OBJECT_ID": "2012-059A",
    "CENTER_NAME": "EARTH",
    "REF_FRAME": "TEME",
    "TIME_SYSTEM": "UTC",
    "MEAN_ELEMENT_THEORY": "SGP4",
    "EPOCH": "2025-05-23T09:23:30.594912",
    "MEAN_MOTION": "1.00268708",
    "ECCENTRICITY": "0.00099970",
    "INCLINATION": "3.4304",
    "RA_OF_ASC_NODE": "77.5580",
    "ARG_OF_PERICENTER": "316.5424",
    "MEAN_ANOMALY": "72.0332",
    "EPHEMERIS_TYPE": "0",
    "CLASSIFICATION_TYPE": "U",
    "NORAD_CAT_ID": "38953",
    "ELEMENT_SET_NO": "999",
    "REV_AT_EPOCH": "4614",
    "BSTAR": "0.00000000000000",
    "MEAN_MOTION_DOT": "-0.00000164",
    "MEAN_MOTION_DDOT": "0.0000000000000",
    "SEMIMAJOR_AXIS": "42165.595",
    "PERIOD": "1436.141",
    "APOAPSIS": "35829.613",
    "PERIAPSIS": "35745.307",
    "OBJECT_TYPE": "PAYLOAD",
    "RCS_SIZE": "LARGE",
    "COUNTRY_CODE": "PRC",
    "LAUNCH_DATE": "2012-10-25",
    "SITE": "XSC",
    "DECAY_DATE": null,
    "FILE": "4737052",
    "GP_ID": "288177636",
    "TLE_LINE0": "0 BEIDOU 16",
    "TLE_LINE1": "1 38953U 12059A   25143.39132633 -.00000164  00000-0  00000+0 0  9991",
    "TLE_LINE2": "2 38953   3.4304  77.5580 0009997 316.5424  72.0332  1.00268708 46149"
}